TRANSPORTER-15 AJ       
1 66698U 25276AJ  25353.83335647 -.00052489  00000+0 -26500-2 0  9998
2 66698  97.4407  65.4650 0002518 272.5294 287.8264 15.17319112  1303
TRANSPORTER-15 AK       
1 66699U 25276AK  25353.83335647 -.00051568  00000+0 -25993-2 0  9991
2 66699  97.4421  65.4690 0002830 270.5753 290.5311 15.17368221  1308
TRANSPORTER-15 AL       
1 66700U 25276AL  25353.83335647 -.00051264  00000+0 -25237-2 0  9998
2 66700  97.4435  65.5002 0001555 164.0696  99.5805 15.18194496  1307
TRANSPORTER-15 AM       
1 66701U 25276AM  25353.83335647 -.00051569  00000+0 -26000-2 0  9996
2 66701  97.4438  65.4740 0002739 269.4071 291.5852 15.17361002  1305
TRANSPORTER-15 AN       
1 66702U 25276AN  25353.83335647 -.00048850  00000+0 -24604-2 0  9994
2 66702  97.4415  65.4672 0002634 278.2908 283.5840 15.17380765  1301
PELICAN-6               
1 66703U 25276AP  25353.83335647 -.00053423  00000+0 -26957-2 0  9990
2 66703  97.4424  65.4723 0000706 259.4896 309.8483 15.17346694  4349
FLOCK 4H-1              
1 66704U 25276AQ  25353.83335647 -.00049878  00000+0 -24634-2 0  9990
2 66704  97.4395  65.4846 0001759 174.7281  82.4740 15.18074494  1354
FLOCK 4H-2              
1 66705U 25276AR  25353.83335647 -.00052395  00000+0 -25836-2 0  9994
2 66705  97.4392  65.4853 0001151 157.5758 101.6641 15.18144223  1301
FLOCK 4H-3              
1 66706U 25276AS  25353.83335647 -.00051879  00000+0 -26066-2 0  9997
2 66706  97.4458  65.4857 0002428 257.1947 314.5682 15.17483245  1303
FLOCK 4H-4              
1 66707U 25276AT  25353.83335647 -.00051393  00000+0 -26019-2 0  9997
2 66707  97.4445  65.4730 0003297 264.7384 288.5613 15.17212345  1309
FLOCK 4H-5              
1 66708U 25276AU  25353.83335647 -.00051332  00000+0 -25292-2 0  9993
2 66708  97.4398  65.4911 0001230 125.4314 139.9213 15.18165144  1309
FLOCK 4H-6              
1 66709U 25276AV  25353.83335647 -.00051554  00000+0 -25588-2 0  9998
2 66709  97.4446  65.5002 0002414 215.2185  32.9217 15.17909764  1359
