CCSDS_OMM_VERS = 2.0
CREATION_DATE  = 
ORIGINATOR     = 

OBJECT_NAME    = TRANSPORTER-15 AJ
OBJECT_ID      = 2025-276AJ
CENTER_NAME    = EARTH
REF_FRAME      = TEME
TIME_SYSTEM    = UTC
MEAN_ELEMENT_THEORY = SGP/SGP4

EPOCH          = 2025-12-19T20:00:01.999008
MEAN_MOTION    = 15.17319112
ECCENTRICITY   = .0002518
INCLINATION    = 97.4407
RA_OF_ASC_NODE = 65.4650
ARG_OF_PERICENTER = 272.5294
MEAN_ANOMALY   = 287.8264

EPHEMERIS_TYPE = 0
CLASSIFICATION_TYPE = U
NORAD_CAT_ID   = 66698
ELEMENT_SET_NO = 999
REV_AT_EPOCH   = 130
BSTAR          = -.265E-2
MEAN_MOTION_DOT = -.52489E-3
MEAN_MOTION_DDOT = 0

CCSDS_OMM_VERS = 2.0
CREATION_DATE  = 
ORIGINATOR     = 

OBJECT_NAME    = TRANSPORTER-15 AK
OBJECT_ID      = 2025-276AK
CENTER_NAME    = EARTH
REF_FRAME      = TEME
TIME_SYSTEM    = UTC
MEAN_ELEMENT_THEORY = SGP/SGP4

EPOCH          = 2025-12-19T20:00:01.999008
MEAN_MOTION    = 15.17368221
ECCENTRICITY   = .000283
INCLINATION    = 97.4421
RA_OF_ASC_NODE = 65.4690
ARG_OF_PERICENTER = 270.5753
MEAN_ANOMALY   = 290.5311

EPHEMERIS_TYPE = 0
CLASSIFICATION_TYPE = U
NORAD_CAT_ID   = 66699
ELEMENT_SET_NO = 999
REV_AT_EPOCH   = 130
BSTAR          = -.25993E-2
MEAN_MOTION_DOT = -.51568E-3
MEAN_MOTION_DDOT = 0

CCSDS_OMM_VERS = 2.0
CREATION_DATE  = 
ORIGINATOR     = 

OBJECT_NAME    = TRANSPORTER-15 AL
OBJECT_ID      = 2025-276AL
CENTER_NAME    = EARTH
REF_FRAME      = TEME
TIME_SYSTEM    = UTC
MEAN_ELEMENT_THEORY = SGP/SGP4

EPOCH          = 2025-12-19T20:00:01.999008
MEAN_MOTION    = 15.18194496
ECCENTRICITY   = .0001555
INCLINATION    = 97.4435
RA_OF_ASC_NODE = 65.5002
ARG_OF_PERICENTER = 164.0696
MEAN_ANOMALY   = 99.5805

EPHEMERIS_TYPE = 0
CLASSIFICATION_TYPE = U
NORAD_CAT_ID   = 66700
ELEMENT_SET_NO = 999
REV_AT_EPOCH   = 130
BSTAR          = -.25237E-2
MEAN_MOTION_DOT = -.51264E-3
MEAN_MOTION_DDOT = 0

CCSDS_OMM_VERS = 2.0
CREATION_DATE  = 
ORIGINATOR     = 

OBJECT_NAME    = TRANSPORTER-15 AM
OBJECT_ID      = 2025-276AM
CENTER_NAME    = EARTH
REF_FRAME      = TEME
TIME_SYSTEM    = UTC
MEAN_ELEMENT_THEORY = SGP/SGP4

EPOCH          = 2025-12-19T20:00:01.999008
MEAN_MOTION    = 15.17361002
ECCENTRICITY   = .0002739
INCLINATION    = 97.4438
RA_OF_ASC_NODE = 65.4740
ARG_OF_PERICENTER = 269.4071
MEAN_ANOMALY   = 291.5852

EPHEMERIS_TYPE = 0
CLASSIFICATION_TYPE = U
NORAD_CAT_ID   = 66701
ELEMENT_SET_NO = 999
REV_AT_EPOCH   = 130
BSTAR          = -.26E-2
MEAN_MOTION_DOT = -.51569E-3
MEAN_MOTION_DDOT = 0

CCSDS_OMM_VERS = 2.0
CREATION_DATE  = 
ORIGINATOR     = 

OBJECT_NAME    = TRANSPORTER-15 AN
OBJECT_ID      = 2025-276AN
CENTER_NAME    = EARTH
REF_FRAME      = TEME
TIME_SYSTEM    = UTC
MEAN_ELEMENT_THEORY = SGP/SGP4

EPOCH          = 2025-12-19T20:00:01.999008
MEAN_MOTION    = 15.17380765
ECCENTRICITY   = .0002634
INCLINATION    = 97.4415
RA_OF_ASC_NODE = 65.4672
ARG_OF_PERICENTER = 278.2908
MEAN_ANOMALY   = 283.5840

EPHEMERIS_TYPE = 0
CLASSIFICATION_TYPE = U
NORAD_CAT_ID   = 66702
ELEMENT_SET_NO = 999
REV_AT_EPOCH   = 130
BSTAR          = -.24604E-2
MEAN_MOTION_DOT = -.4885E-3
MEAN_MOTION_DDOT = 0

CCSDS_OMM_VERS = 2.0
CREATION_DATE  = 
ORIGINATOR     = 

OBJECT_NAME    = PELICAN-6
OBJECT_ID      = 2025-276AP
CENTER_NAME    = EARTH
REF_FRAME      = TEME
TIME_SYSTEM    = UTC
MEAN_ELEMENT_THEORY = SGP/SGP4

EPOCH          = 2025-12-19T20:00:01.999008
MEAN_MOTION    = 15.17346694
ECCENTRICITY   = .0000706
INCLINATION    = 97.4424
RA_OF_ASC_NODE = 65.4723
ARG_OF_PERICENTER = 259.4896
MEAN_ANOMALY   = 309.8483

EPHEMERIS_TYPE = 0
CLASSIFICATION_TYPE = U
NORAD_CAT_ID   = 66703
ELEMENT_SET_NO = 999
REV_AT_EPOCH   = 434
BSTAR          = -.26957E-2
MEAN_MOTION_DOT = -.53423E-3
MEAN_MOTION_DDOT = 0

CCSDS_OMM_VERS = 2.0
CREATION_DATE  = 
ORIGINATOR     = 

OBJECT_NAME    = FLOCK 4H-1
OBJECT_ID      = 2025-276AQ
CENTER_NAME    = EARTH
REF_FRAME      = TEME
TIME_SYSTEM    = UTC
MEAN_ELEMENT_THEORY = SGP/SGP4

EPOCH          = 2025-12-19T20:00:01.999008
MEAN_MOTION    = 15.18074494
ECCENTRICITY   = .0001759
INCLINATION    = 97.4395
RA_OF_ASC_NODE = 65.4846
ARG_OF_PERICENTER = 174.7281
MEAN_ANOMALY   = 82.4740

EPHEMERIS_TYPE = 0
CLASSIFICATION_TYPE = U
NORAD_CAT_ID   = 66704
ELEMENT_SET_NO = 999
REV_AT_EPOCH   = 135
BSTAR          = -.24634E-2
MEAN_MOTION_DOT = -.49878E-3
MEAN_MOTION_DDOT = 0

CCSDS_OMM_VERS = 2.0
CREATION_DATE  = 
ORIGINATOR     = 

OBJECT_NAME    = FLOCK 4H-2
OBJECT_ID      = 2025-276AR
CENTER_NAME    = EARTH
REF_FRAME      = TEME
TIME_SYSTEM    = UTC
MEAN_ELEMENT_THEORY = SGP/SGP4

EPOCH          = 2025-12-19T20:00:01.999008
MEAN_MOTION    = 15.18144223
ECCENTRICITY   = .0001151
INCLINATION    = 97.4392
RA_OF_ASC_NODE = 65.4853
ARG_OF_PERICENTER = 157.5758
MEAN_ANOMALY   = 101.6641

EPHEMERIS_TYPE = 0
CLASSIFICATION_TYPE = U
NORAD_CAT_ID   = 66705
ELEMENT_SET_NO = 999
REV_AT_EPOCH   = 130
BSTAR          = -.25836E-2
MEAN_MOTION_DOT = -.52395E-3
MEAN_MOTION_DDOT = 0

CCSDS_OMM_VERS = 2.0
CREATION_DATE  = 
ORIGINATOR     = 

OBJECT_NAME    = FLOCK 4H-3
OBJECT_ID      = 2025-276AS
CENTER_NAME    = EARTH
REF_FRAME      = TEME
TIME_SYSTEM    = UTC
MEAN_ELEMENT_THEORY = SGP/SGP4

EPOCH          = 2025-12-19T20:00:01.999008
MEAN_MOTION    = 15.17483245
ECCENTRICITY   = .0002428
INCLINATION    = 97.4458
RA_OF_ASC_NODE = 65.4857
ARG_OF_PERICENTER = 257.1947
MEAN_ANOMALY   = 314.5682

EPHEMERIS_TYPE = 0
CLASSIFICATION_TYPE = U
NORAD_CAT_ID   = 66706
ELEMENT_SET_NO = 999
REV_AT_EPOCH   = 130
BSTAR          = -.26066E-2
MEAN_MOTION_DOT = -.51879E-3
MEAN_MOTION_DDOT = 0

CCSDS_OMM_VERS = 2.0
CREATION_DATE  = 
ORIGINATOR     = 

OBJECT_NAME    = FLOCK 4H-4
OBJECT_ID      = 2025-276AT
CENTER_NAME    = EARTH
REF_FRAME      = TEME
TIME_SYSTEM    = UTC
MEAN_ELEMENT_THEORY = SGP/SGP4

EPOCH          = 2025-12-19T20:00:01.999008
MEAN_MOTION    = 15.17212345
ECCENTRICITY   = .0003297
INCLINATION    = 97.4445
RA_OF_ASC_NODE = 65.4730
ARG_OF_PERICENTER = 264.7384
MEAN_ANOMALY   = 288.5613

EPHEMERIS_TYPE = 0
CLASSIFICATION_TYPE = U
NORAD_CAT_ID   = 66707
ELEMENT_SET_NO = 999
REV_AT_EPOCH   = 130
BSTAR          = -.26019E-2
MEAN_MOTION_DOT = -.51393E-3
MEAN_MOTION_DDOT = 0

CCSDS_OMM_VERS = 2.0
CREATION_DATE  = 
ORIGINATOR     = 

OBJECT_NAME    = FLOCK 4H-5
OBJECT_ID      = 2025-276AU
CENTER_NAME    = EARTH
REF_FRAME      = TEME
TIME_SYSTEM    = UTC
MEAN_ELEMENT_THEORY = SGP/SGP4

EPOCH          = 2025-12-19T20:00:01.999008
MEAN_MOTION    = 15.18165144
ECCENTRICITY   = .000123
INCLINATION    = 97.4398
RA_OF_ASC_NODE = 65.4911
ARG_OF_PERICENTER = 125.4314
MEAN_ANOMALY   = 139.9213

EPHEMERIS_TYPE = 0
CLASSIFICATION_TYPE = U
NORAD_CAT_ID   = 66708
ELEMENT_SET_NO = 999
REV_AT_EPOCH   = 130
BSTAR          = -.25292E-2
MEAN_MOTION_DOT = -.51332E-3
MEAN_MOTION_DDOT = 0

CCSDS_OMM_VERS = 2.0
CREATION_DATE  = 
ORIGINATOR     = 

OBJECT_NAME    = FLOCK 4H-6
OBJECT_ID      = 2025-276AV
CENTER_NAME    = EARTH
REF_FRAME      = TEME
TIME_SYSTEM    = UTC
MEAN_ELEMENT_THEORY = SGP/SGP4

EPOCH          = 2025-12-19T20:00:01.999008
MEAN_MOTION    = 15.17909764
ECCENTRICITY   = .0002414
INCLINATION    = 97.4446
RA_OF_ASC_NODE = 65.5002
ARG_OF_PERICENTER = 215.2185
MEAN_ANOMALY   = 32.9217

EPHEMERIS_TYPE = 0
CLASSIFICATION_TYPE = U
NORAD_CAT_ID   = 66709
ELEMENT_SET_NO = 999
REV_AT_EPOCH   = 135
BSTAR          = -.25588E-2
MEAN_MOTION_DOT = -.51554E-3
MEAN_MOTION_DDOT = 0

